[{"OBJECT_NAME":"STARLINK-35710","OBJECT_ID":"2025-244G","EPOCH":"2026-03-09T17:48:10.274112","MEAN_MOTION":15.30193102,"ECCENTRICITY":8.457e-5,"INCLINATION":53.1572,"RA_OF_ASC_NODE":229.9441,"ARG_OF_PERICENTER":84.6395,"MEAN_ANOMALY":275.4702,"EPHEMERIS_TYPE":0,"CLASSIFICATION_TYPE":"U","NORAD_CAT_ID":66212,"ELEMENT_SET_NO":999,"REV_AT_EPOCH":2166,"BSTAR":0.001076495,"MEAN_MOTION_DOT":0.00031653,"MEAN_MOTION_DDOT":0},{"OBJECT_NAME":"KUIPER-00177","OBJECT_ID":"2026-030C","EPOCH":"2026-03-09T22:40:13.687104","MEAN_MOTION":15.35467467,"ECCENTRICITY":0.00021592,"INCLINATION":51.8837,"RA_OF_ASC_NODE":217.7875,"ARG_OF_PERICENTER":172.5497,"MEAN_ANOMALY":187.5522,"EPHEMERIS_TYPE":0,"CLASSIFICATION_TYPE":"U","NORAD_CAT_ID":67766,"ELEMENT_SET_NO":999,"REV_AT_EPOCH":513,"BSTAR":-0.015747205,"MEAN_MOTION_DOT":-0.00515419,"MEAN_MOTION_DDOT":0}]
